{"type":"FeatureCollection","features":[{"type":"Feature","geometry":{"type":"Polygon","coordinates":[[[149.977,-37.505],[148.195,-36.796],[148.211,-36.651],[148.218,-36.598],[148.133,-36.567],[148.125,-36.465],[148.038,-36.39],[148.038,-36.141],[148.002,-36.14],[148,-36.046],[147.912,-35.995],[147.708,-35.929],[147.592,-35.97],[147.549,-35.965],[147.584,-35.985],[147.552,-36.004],[147.494,-35.944],[147.405,-35.943],[147.32,-36.061],[147.127,-36.018],[147.123,-35.994],[147.053,-36.108],[146.957,-36.078],[146.944,-36.116],[146.732,-36.024],[146.686,-36.041],[146.613,-35.973],[146.55,-35.992],[146.503,-35.958],[146.422,-35.966],[146.369,-36.051],[146.299,-36.048],[146.186,-36.042],[145.972,-36.016],[145.954,-35.961],[145.903,-35.952],[145.812,-35.992],[145.674,-35.926],[145.535,-35.802],[145.355,-35.867],[144.992,-35.852],[144.924,-35.989],[144.982,-36.072],[144.863,-36.059],[144.808,-36.124],[144.726,-36.118],[144.726,-36.089],[144.684,-36.095],[144.689,-36.061],[144.618,-36.077],[144.615,-36.032],[144.516,-35.995],[144.521,-35.97],[144.408,-35.904],[144.349,-35.767],[144.105,-35.591],[143.99,-35.555],[143.97,-35.5],[143.751,-35.388],[143.62,-35.388],[143.562,-35.337],[143.571,-35.207],[143.395,-35.192],[143.322,-35.037],[143.348,-34.792],[143.277,-34.792],[143.252,-34.773],[143.274,-34.753],[143.224,-34.759],[143.214,-34.738],[143.113,-34.681],[142.924,-34.648],[142.868,-34.627],[142.788,-34.59],[142.791,-34.546],[142.748,-34.577],[142.618,-34.729],[142.514,-34.691],[142.468,-34.564],[142.452,-34.584],[142.368,-34.53],[142.395,-34.493],[142.36,-34.499],[142.353,-34.47],[142.351,-34.397],[142.236,-34.307],[142.083,-34.174],[142.076,-34.131],[142.028,-34.123],[142.013,-34.105],[141.677,-34.101],[141.605,-34.149],[141.603,-34.191],[141.51,-34.216],[141.325,-34.139],[141.247,-34.073],[141.242,-34.061],[141.089,-34.077],[141.003,-34.023],[141.003,-33.99],[141.001,-28.999],[148.958,-28.999],[149.033,-28.956],[149.081,-28.842],[149.387,-28.696],[149.503,-28.574],[149.588,-28.573],[149.703,-28.634],[150.152,-28.55],[150.212,-28.574],[150.29,-28.537],[150.446,-28.665],[150.633,-28.677],[150.752,-28.633],[151.011,-28.741],[151.045,-28.844],[151.103,-28.836],[151.275,-28.939],[151.28,-29.101],[151.339,-29.177],[151.394,-29.178],[151.502,-29.071],[151.491,-29.056],[151.546,-28.953],[151.707,-28.872],[151.734,-28.872],[151.778,-28.96],[151.832,-28.96],[151.849,-28.908],[151.9,-28.915],[152.01,-28.908],[152.038,-28.865],[152.015,-28.851],[152.076,-28.708],[152.01,-28.665],[151.956,-28.519],[151.983,-28.503],[152.017,-28.525],[152.217,-28.449],[152.31,-28.363],[152.386,-28.369],[152.464,-28.259],[152.526,-28.306],[152.579,-28.339],[152.615,-28.27],[152.625,-28.298],[152.751,-28.364],[152.88,-28.31],[153.109,-28.358],[153.477,-28.157],[153.609,-28.843],[153.344,-29.297],[153.334,-29.675],[152.988,-30.732],[153.089,-30.911],[152.938,-31.476],[152.509,-32.172],[152.54,-32.443],[151.936,-32.737],[151.442,-33.307],[151.249,-34.002],[150.832,-34.486],[150.778,-35.002],[150.15,-35.891],[149.92,-36.895],[149.977,-37.505]],[[149.399,-35.319],[149.272,-35.274],[149.214,-35.22],[149.205,-35.23],[149.121,-35.125],[148.808,-35.31],[148.763,-35.496],[148.791,-35.703],[148.856,-35.761],[148.887,-35.719],[148.909,-35.853],[149.049,-35.92],[149.094,-35.824],[149.085,-35.581],[149.143,-35.593],[149.147,-35.415],[149.208,-35.345],[149.352,-35.351],[149.399,-35.319]]]},"properties":{"STATE_CODE":"1","STATE_NAME":"New South Wales"},"id":0},{"type":"Feature","geometry":{"type":"Polygon","coordinates":[[[141.003,-33.99],[141.003,-34.023],[141.089,-34.077],[141.242,-34.061],[141.247,-34.073],[141.325,-34.139],[141.51,-34.216],[141.603,-34.191],[141.605,-34.149],[141.677,-34.101],[142.013,-34.105],[142.028,-34.123],[142.076,-34.131],[142.083,-34.174],[142.236,-34.307],[142.351,-34.397],[142.353,-34.47],[142.36,-34.499],[142.395,-34.493],[142.368,-34.53],[142.452,-34.584],[142.468,-34.564],[142.514,-34.691],[142.618,-34.729],[142.748,-34.577],[142.791,-34.546],[142.788,-34.59],[142.868,-34.627],[142.924,-34.648],[143.113,-34.681],[143.214,-34.738],[143.224,-34.759],[143.274,-34.753],[143.252,-34.773],[143.277,-34.792],[143.348,-34.792],[143.322,-35.037],[143.395,-35.192],[143.571,-35.207],[143.562,-35.337],[143.62,-35.388],[143.751,-35.388],[143.97,-35.5],[143.99,-35.555],[144.105,-35.591],[144.349,-35.767],[144.408,-35.904],[144.521,-35.97],[144.516,-35.995],[144.615,-36.032],[144.618,-36.077],[144.689,-36.061],[144.684,-36.095],[144.726,-36.089],[144.726,-36.118],[144.808,-36.124],[144.863,-36.059],[144.982,-36.072],[144.924,-35.989],[144.992,-35.852],[145.355,-35.867],[145.535,-35.802],[145.674,-35.926],[145.812,-35.992],[145.903,-35.952],[145.954,-35.961],[145.972,-36.016],[146.186,-36.042],[146.299,-36.048],[146.369,-36.051],[146.422,-35.966],[146.503,-35.958],[146.55,-35.992],[146.613,-35.973],[146.686,-36.041],[146.732,-36.024],[146.944,-36.116],[146.957,-36.078],[147.053,-36.108],[147.123,-35.994],[147.127,-36.018],[147.32,-36.061],[147.405,-35.943],[147.494,-35.944],[147.552,-36.004],[147.584,-35.985],[147.549,-35.965],[147.592,-35.97],[147.708,-35.929],[147.912,-35.995],[148,-36.046],[148.002,-36.14],[148.038,-36.141],[148.038,-36.39],[148.125,-36.465],[148.133,-36.567],[148.218,-36.598],[148.211,-36.651],[148.195,-36.796],[149.977,-37.505],[149.485,-37.775],[148.29,-37.811],[147.788,-37.955],[146.926,-38.594],[146.212,-38.693],[146.479,-38.792],[146.427,-39.13],[145.921,-38.91],[144.97,-37.861],[143.554,-38.856],[142.373,-38.349],[141.882,-38.266],[141.543,-38.433],[140.966,-38.056],[140.974,-37.462],[140.964,-33.981],[141.003,-33.999],[141.003,-33.99]]]},"properties":{"STATE_CODE":"2","STATE_NAME":"Victoria"},"id":1},{"type":"Feature","geometry":{"type":"MultiPolygon","coordinates":[[[[153.477,-28.157],[153.109,-28.358],[152.88,-28.31],[152.751,-28.364],[152.625,-28.298],[152.615,-28.27],[152.579,-28.339],[152.526,-28.306],[152.464,-28.259],[152.386,-28.369],[152.31,-28.363],[152.217,-28.449],[152.017,-28.525],[151.983,-28.503],[151.956,-28.519],[152.01,-28.665],[152.076,-28.708],[152.015,-28.851],[152.038,-28.865],[152.01,-28.908],[151.9,-28.915],[151.849,-28.908],[151.832,-28.96],[151.778,-28.96],[151.734,-28.872],[151.707,-28.872],[151.546,-28.953],[151.491,-29.056],[151.502,-29.071],[151.394,-29.178],[151.339,-29.177],[151.28,-29.101],[151.275,-28.939],[151.103,-28.836],[151.045,-28.844],[151.011,-28.741],[150.752,-28.633],[150.633,-28.677],[150.446,-28.665],[150.29,-28.537],[150.212,-28.574],[150.152,-28.55],[149.703,-28.634],[149.588,-28.573],[149.503,-28.574],[149.387,-28.696],[149.081,-28.842],[149.033,-28.956],[148.958,-28.999],[141.001,-28.999],[140.999,-28.999],[140.999,-25.996],[137.999,-25.997],[138.001,-16.545],[138.324,-16.75],[139.039,-16.912],[139.238,-17.32],[140.004,-17.715],[140.385,-17.678],[140.887,-17.382],[141.204,-16.692],[141.664,-15.004],[141.468,-13.923],[141.695,-13.27],[141.589,-13.017],[141.886,-12.617],[141.592,-12.559],[141.942,-11.946],[142.133,-10.948],[142.438,-10.708],[142.786,-11.074],[142.847,-11.824],[143.186,-11.991],[143.079,-12.337],[143.534,-12.839],[143.532,-13.755],[143.746,-14.333],[144.029,-14.481],[144.491,-14.166],[144.693,-14.567],[145.352,-14.951],[145.234,-15.139],[145.41,-16.459],[145.889,-17.058],[146.149,-17.649],[146.016,-18.245],[146.338,-18.527],[146.454,-19.074],[147.126,-19.422],[147.455,-19.395],[147.671,-19.828],[148.563,-20.067],[148.841,-20.352],[148.662,-20.586],[149.158,-21],[149.658,-22.355],[150.047,-22.661],[150.043,-22.126],[150.537,-22.59],[150.667,-22.347],[150.835,-22.684],[150.75,-23.129],[151.173,-23.816],[151.886,-24.149],[152.148,-24.627],[152.468,-24.816],[152.878,-25.684],[153.192,-25.933],[153.077,-26.225],[153.151,-26.802],[153.037,-27.197],[153.477,-28.157]]],[[[152.95,-25.574],[152.992,-25.221],[153.36,-25.006],[153.108,-25.56],[152.95,-25.574]]]]},"properties":{"STATE_CODE":"3","STATE_NAME":"Queensland"},"id":2},{"type":"Feature","geometry":{"type":"MultiPolygon","coordinates":[[[[141.003,-33.99],[141.003,-33.999],[140.964,-33.981],[140.974,-37.462],[140.966,-38.056],[140.396,-37.919],[139.762,-37.2],[139.783,-36.459],[139.523,-36.044],[138.884,-35.557],[138.157,-35.658],[138.441,-35.35],[138.541,-34.753],[138.077,-34.134],[137.637,-35.168],[136.849,-35.282],[137.014,-34.893],[137.449,-34.91],[137.527,-34.004],[137.939,-33.548],[137.811,-33.266],[138.054,-33.115],[137.75,-32.415],[137.787,-33],[137.442,-33.152],[137.213,-33.661],[136.363,-34.069],[135.686,-34.945],[135.402,-34.633],[135.182,-33.878],[134.83,-33.626],[134.802,-33.329],[134.369,-33.176],[134.06,-32.722],[134.266,-32.574],[133.821,-32.234],[133.275,-32.195],[132.747,-31.949],[132.271,-32.034],[131.149,-31.464],[130.806,-31.606],[130.152,-31.577],[129.001,-31.687],[129.001,-25.999],[137.999,-25.997],[140.999,-25.996],[140.999,-28.999],[141.001,-28.999],[141.003,-33.99]]],[[[138.135,-35.841],[137.461,-36.075],[136.727,-36.045],[136.587,-35.749],[137.634,-35.566],[137.578,-35.726],[138.135,-35.841]]]]},"properties":{"STATE_CODE":"4","STATE_NAME":"South Australia"},"id":3},{"type":"Feature","geometry":{"type":"Polygon","coordinates":[[[129.001,-25.999],[129.001,-31.687],[128.314,-31.979],[127.326,-32.257],[126.203,-32.232],[124.814,-32.873],[124.154,-33.096],[123.976,-33.559],[123.534,-33.94],[123.023,-33.857],[122.137,-34.007],[121.362,-33.815],[120.042,-33.923],[119.597,-34.135],[119.285,-34.513],[118.961,-34.451],[118.334,-34.891],[117.629,-35.128],[117.363,-35.02],[116.63,-35.061],[116.002,-34.842],[115.67,-34.481],[114.991,-34.098],[115.004,-33.531],[115.428,-33.608],[115.681,-33.275],[115.608,-32.667],[115.747,-32.646],[115.73,-31.766],[115.19,-30.825],[114.955,-30.049],[114.998,-29.494],[114.597,-28.612],[114.175,-28.111],[114.104,-27.503],[113.783,-26.929],[113.297,-26.4],[113.364,-26.017],[113.642,-26.619],[113.881,-26.335],[113.58,-26.097],[113.525,-25.608],[113.894,-26.035],[114.077,-26.467],[114.205,-25.853],[114.004,-25.619],[113.623,-24.746],[113.407,-24.484],[113.47,-23.899],[113.753,-23.528],[113.826,-22.956],[113.654,-22.579],[114.024,-21.851],[114.144,-22.538],[114.34,-22.516],[114.643,-21.909],[115.516,-21.483],[115.918,-21.079],[116.598,-20.746],[117.094,-20.624],[117.774,-20.664],[118.161,-20.358],[118.823,-20.276],[119.1,-19.959],[119.563,-20.079],[120.982,-19.621],[121.413,-19.238],[121.729,-18.576],[122.37,-18.116],[122.175,-17.974],[122.173,-17.264],[122.904,-16.489],[123.564,-17.406],[123.796,-16.912],[123.503,-16.659],[123.717,-16.372],[123.557,-16.178],[124.202,-16.405],[124.516,-15.98],[124.369,-15.672],[124.834,-15.158],[125.443,-15.149],[125.204,-14.651],[125.588,-14.506],[126.042,-14.537],[126.053,-14.254],[126.334,-14.05],[126.602,-14.236],[126.963,-13.742],[127.143,-13.982],[127.43,-13.943],[127.85,-14.484],[128.201,-14.706],[128.092,-15.071],[128.55,-14.768],[129.001,-14.879],[129.001,-25.999]]]},"properties":{"STATE_CODE":"5","STATE_NAME":"Western Australia"},"id":4},{"type":"Feature","geometry":{"type":"Polygon","coordinates":[[[144.754,-41.062],[144.686,-40.672],[146.154,-41.154],[147.491,-40.979],[147.939,-40.74],[148.324,-40.988],[148.324,-41.917],[148.07,-42.112],[147.845,-42.874],[147.361,-42.914],[147.243,-43.268],[146.827,-43.643],[146.031,-43.571],[145.263,-42.622],[145.209,-42.207],[145.513,-42.435],[144.684,-41.235],[144.754,-41.062]]]},"properties":{"STATE_CODE":"6","STATE_NAME":"Tasmania"},"id":5},{"type":"Feature","geometry":{"type":"MultiPolygon","coordinates":[[[[138.001,-16.545],[137.999,-25.997],[129.001,-25.999],[129.001,-14.879],[129.228,-14.839],[129.685,-15.143],[129.5,-14.803],[129.803,-14.858],[129.379,-14.419],[129.721,-14.013],[129.828,-13.518],[130.284,-13.306],[130.128,-12.974],[130.352,-12.67],[130.57,-12.744],[130.619,-12.381],[131.035,-12.361],[131.031,-12.146],[132.07,-12.304],[132.629,-12.085],[132.494,-11.483],[132.114,-11.54],[131.815,-11.212],[132.231,-11.363],[132.339,-11.14],[132.733,-11.519],[132.918,-11.332],[133.15,-11.702],[133.611,-11.843],[133.809,-11.734],[134.493,-12.072],[134.748,-11.949],[135.056,-12.264],[135.366,-12.085],[136.26,-12.456],[136.167,-12.163],[136.415,-11.959],[136.648,-12.27],[136.979,-12.345],[136.333,-13.034],[135.88,-13.363],[135.879,-14.167],[135.382,-14.726],[135.479,-14.976],[136.24,-15.416],[136.729,-15.932],[136.978,-15.851],[137.73,-16.232],[138.001,-16.545]]],[[[136.964,-14.165],[136.904,-14.311],[136.437,-14.196],[136.409,-13.831],[136.837,-13.843],[136.707,-14.169],[136.964,-14.165]]],[[[130.402,-11.363],[131.436,-11.266],[131.47,-11.608],[130.949,-11.94],[130.493,-11.655],[130.402,-11.363]]],[[[130.213,-11.712],[130.322,-11.333],[130.468,-11.666],[130.604,-11.827],[130.213,-11.712]]]]},"properties":{"STATE_CODE":"7","STATE_NAME":"Northern Territory"},"id":6},{"type":"Feature","geometry":{"type":"Polygon","coordinates":[[[149.399,-35.319],[149.352,-35.351],[149.208,-35.345],[149.147,-35.415],[149.143,-35.593],[149.085,-35.581],[149.094,-35.824],[149.049,-35.92],[148.909,-35.853],[148.887,-35.719],[148.856,-35.761],[148.791,-35.703],[148.763,-35.496],[148.808,-35.31],[149.121,-35.125],[149.205,-35.23],[149.214,-35.22],[149.272,-35.274],[149.399,-35.319]]]},"properties":{"STATE_CODE":"8","STATE_NAME":"Australian Capital Territory"},"id":7}]}